CCSDS_OMM_VERS = 2.0
CREATION_DATE  = 
ORIGINATOR     = 

OBJECT_NAME    = SL-16 R/B
OBJECT_ID      = 1993-016B
CENTER_NAME    = EARTH
REF_FRAME      = TEME
TIME_SYSTEM    = UTC
MEAN_ELEMENT_THEORY = SGP/SGP4

EPOCH          = 2025-12-25T11:56:57.086016
MEAN_MOTION    = 14.15292962
ECCENTRICITY   = .0008044
INCLINATION    = 71.0084
RA_OF_ASC_NODE = 11.0073
ARG_OF_PERICENTER = 72.2662
MEAN_ANOMALY   = 287.9338

EPHEMERIS_TYPE = 0
CLASSIFICATION_TYPE = U
NORAD_CAT_ID   = 22566
ELEMENT_SET_NO = 999
REV_AT_EPOCH   = 69167
BSTAR          = .16877E-3
MEAN_MOTION_DOT = .281E-5
MEAN_MOTION_DDOT = 0

CCSDS_OMM_VERS = 2.0
CREATION_DATE  = 
ORIGINATOR     = 

OBJECT_NAME    = COSMOS 2242
OBJECT_ID      = 1993-024A
CENTER_NAME    = EARTH
REF_FRAME      = TEME
TIME_SYSTEM    = UTC
MEAN_ELEMENT_THEORY = SGP/SGP4

EPOCH          = 2025-12-25T08:14:06.507168
MEAN_MOTION    = 14.96156581
ECCENTRICITY   = .0015928
INCLINATION    = 82.5196
RA_OF_ASC_NODE = 337.7972
ARG_OF_PERICENTER = 189.2139
MEAN_ANOMALY   = 170.8794

EPHEMERIS_TYPE = 0
CLASSIFICATION_TYPE = U
NORAD_CAT_ID   = 22626
ELEMENT_SET_NO = 999
REV_AT_EPOCH   = 76927
BSTAR          = .20844E-3
MEAN_MOTION_DOT = .2378E-4
MEAN_MOTION_DDOT = 0

CCSDS_OMM_VERS = 2.0
CREATION_DATE  = 
ORIGINATOR     = 

OBJECT_NAME    = SL-16 R/B
OBJECT_ID      = 1993-059B
CENTER_NAME    = EARTH
REF_FRAME      = TEME
TIME_SYSTEM    = UTC
MEAN_ELEMENT_THEORY = SGP/SGP4

EPOCH          = 2025-12-25T20:38:56.594400
MEAN_MOTION    = 14.17216349
ECCENTRICITY   = .001862
INCLINATION    = 70.9884
RA_OF_ASC_NODE = 166.8178
ARG_OF_PERICENTER = 317.1124
MEAN_ANOMALY   = 42.8546

EPHEMERIS_TYPE = 0
CLASSIFICATION_TYPE = U
NORAD_CAT_ID   = 22803
ELEMENT_SET_NO = 999
REV_AT_EPOCH   = 66907
BSTAR          = .17622E-3
MEAN_MOTION_DOT = .308E-5
MEAN_MOTION_DDOT = 0

CCSDS_OMM_VERS = 2.0
CREATION_DATE  = 
ORIGINATOR     = 

OBJECT_NAME    = ARIANE 40 R/B
OBJECT_ID      = 1993-061H
CENTER_NAME    = EARTH
REF_FRAME      = TEME
TIME_SYSTEM    = UTC
MEAN_ELEMENT_THEORY = SGP/SGP4

EPOCH          = 2025-12-25T19:36:07.490304
MEAN_MOTION    = 14.32810024
ECCENTRICITY   = .0011545
INCLINATION    = 98.5059
RA_OF_ASC_NODE = 65.1078
ARG_OF_PERICENTER = 139.1054
MEAN_ANOMALY   = 221.0998

EPHEMERIS_TYPE = 0
CLASSIFICATION_TYPE = U
NORAD_CAT_ID   = 22830
ELEMENT_SET_NO = 999
REV_AT_EPOCH   = 68352
BSTAR          = .11788E-3
MEAN_MOTION_DOT = .278E-5
MEAN_MOTION_DDOT = 0

CCSDS_OMM_VERS = 2.0
CREATION_DATE  = 
ORIGINATOR     = 

OBJECT_NAME    = COSMOS 2278
OBJECT_ID      = 1994-023A
CENTER_NAME    = EARTH
REF_FRAME      = TEME
TIME_SYSTEM    = UTC
MEAN_ELEMENT_THEORY = SGP/SGP4

EPOCH          = 2025-12-25T14:52:52.802112
MEAN_MOTION    = 14.14348579
ECCENTRICITY   = .0007785
INCLINATION    = 71.0534
RA_OF_ASC_NODE = 330.0621
ARG_OF_PERICENTER = 156.4486
MEAN_ANOMALY   = 203.6995

EPHEMERIS_TYPE = 0
CLASSIFICATION_TYPE = U
NORAD_CAT_ID   = 23087
ELEMENT_SET_NO = 999
REV_AT_EPOCH   = 63433
BSTAR          = .66151E-4
MEAN_MOTION_DOT = .79E-6
MEAN_MOTION_DDOT = 0

CCSDS_OMM_VERS = 2.0
CREATION_DATE  = 
ORIGINATOR     = 

OBJECT_NAME    = SL-16 R/B
OBJECT_ID      = 1994-023B
CENTER_NAME    = EARTH
REF_FRAME      = TEME
TIME_SYSTEM    = UTC
MEAN_ELEMENT_THEORY = SGP/SGP4

EPOCH          = 2025-12-25T20:11:54.119040
MEAN_MOTION    = 14.14999397
ECCENTRICITY   = .0002099
INCLINATION    = 70.9976
RA_OF_ASC_NODE = 225.9723
ARG_OF_PERICENTER = 2.9565
MEAN_ANOMALY   = 357.1569

EPHEMERIS_TYPE = 0
CLASSIFICATION_TYPE = U
NORAD_CAT_ID   = 23088
ELEMENT_SET_NO = 999
REV_AT_EPOCH   = 63564
BSTAR          = -.94768E-4
MEAN_MOTION_DOT = -.231E-5
MEAN_MOTION_DDOT = 0

CCSDS_OMM_VERS = 2.0
CREATION_DATE  = 
ORIGINATOR     = 

OBJECT_NAME    = SL-16 R/B
OBJECT_ID      = 1994-074B
CENTER_NAME    = EARTH
REF_FRAME      = TEME
TIME_SYSTEM    = UTC
MEAN_ELEMENT_THEORY = SGP/SGP4

EPOCH          = 2025-12-25T16:07:48.093888
MEAN_MOTION    = 14.79303842
ECCENTRICITY   = .0008044
INCLINATION    = 97.7189
RA_OF_ASC_NODE = 28.4619
ARG_OF_PERICENTER = 100.5123
MEAN_ANOMALY   = 14.6614

EPHEMERIS_TYPE = 0
CLASSIFICATION_TYPE = U
NORAD_CAT_ID   = 23343
ELEMENT_SET_NO = 999
REV_AT_EPOCH   = 67630
BSTAR          = .72915E-4
MEAN_MOTION_DOT = .493E-5
MEAN_MOTION_DDOT = 0

CCSDS_OMM_VERS = 2.0
CREATION_DATE  = 
ORIGINATOR     = 

OBJECT_NAME    = SL-16 R/B
OBJECT_ID      = 1994-077B
CENTER_NAME    = EARTH
REF_FRAME      = TEME
TIME_SYSTEM    = UTC
MEAN_ELEMENT_THEORY = SGP/SGP4

EPOCH          = 2025-12-25T20:26:54.546144
MEAN_MOTION    = 14.15552036
ECCENTRICITY   = .0005046
INCLINATION    = 70.9822
RA_OF_ASC_NODE = 147.8288
ARG_OF_PERICENTER = 274.6288
MEAN_ANOMALY   = 85.4258

EPHEMERIS_TYPE = 0
CLASSIFICATION_TYPE = U
NORAD_CAT_ID   = 23405
ELEMENT_SET_NO = 999
REV_AT_EPOCH   = 60578
BSTAR          = -.78941E-4
MEAN_MOTION_DOT = -.202E-5
MEAN_MOTION_DDOT = 0

CCSDS_OMM_VERS = 2.0
CREATION_DATE  = 
ORIGINATOR     = 

OBJECT_NAME    = ARIANE 40+ R/B
OBJECT_ID      = 1995-021B
CENTER_NAME    = EARTH
REF_FRAME      = TEME
TIME_SYSTEM    = UTC
MEAN_ELEMENT_THEORY = SGP/SGP4

EPOCH          = 2025-12-25T19:29:20.325120
MEAN_MOTION    = 14.39705213
ECCENTRICITY   = .0006786
INCLINATION    = 98.4635
RA_OF_ASC_NODE = 67.2424
ARG_OF_PERICENTER = 13.3378
MEAN_ANOMALY   = 97.7031

EPHEMERIS_TYPE = 0
CLASSIFICATION_TYPE = U
NORAD_CAT_ID   = 23561
ELEMENT_SET_NO = 999
REV_AT_EPOCH   = 60861
BSTAR          = .11889E-3
MEAN_MOTION_DOT = .329E-5
MEAN_MOTION_DDOT = 0

CCSDS_OMM_VERS = 2.0
CREATION_DATE  = 
ORIGINATOR     = 

OBJECT_NAME    = SL-16 R/B
OBJECT_ID      = 1995-058B
CENTER_NAME    = EARTH
REF_FRAME      = TEME
TIME_SYSTEM    = UTC
MEAN_ELEMENT_THEORY = SGP/SGP4

EPOCH          = 2025-12-25T06:57:37.688256
MEAN_MOTION    = 14.15481425
ECCENTRICITY   = .0014631
INCLINATION    = 71.0217
RA_OF_ASC_NODE = 336.4546
ARG_OF_PERICENTER = 238.7929
MEAN_ANOMALY   = 121.1761

EPHEMERIS_TYPE = 0
CLASSIFICATION_TYPE = U
NORAD_CAT_ID   = 23705
ELEMENT_SET_NO = 999
REV_AT_EPOCH   = 55732
BSTAR          = -.57651E-4
MEAN_MOTION_DOT = -.16E-5
MEAN_MOTION_DDOT = 0

CCSDS_OMM_VERS = 2.0
CREATION_DATE  = 
ORIGINATOR     = 

OBJECT_NAME    = SL-16 R/B
OBJECT_ID      = 1996-051B
CENTER_NAME    = EARTH
REF_FRAME      = TEME
TIME_SYSTEM    = UTC
MEAN_ELEMENT_THEORY = SGP/SGP4

EPOCH          = 2025-12-25T05:40:42.397248
MEAN_MOTION    = 14.12397574
ECCENTRICITY   = .0019488
INCLINATION    = 70.7595
RA_OF_ASC_NODE = 332.8311
ARG_OF_PERICENTER = 246.0305
MEAN_ANOMALY   = 113.8774

EPHEMERIS_TYPE = 0
CLASSIFICATION_TYPE = U
NORAD_CAT_ID   = 24298
ELEMENT_SET_NO = 999
REV_AT_EPOCH   = 51113
BSTAR          = .19464E-4
MEAN_MOTION_DOT = -.13E-6
MEAN_MOTION_DDOT = 0

CCSDS_OMM_VERS = 2.0
CREATION_DATE  = 
ORIGINATOR     = 

OBJECT_NAME    = ORBVIEW 2 (SEASTAR)
OBJECT_ID      = 1997-037A
CENTER_NAME    = EARTH
REF_FRAME      = TEME
TIME_SYSTEM    = UTC
MEAN_ELEMENT_THEORY = SGP/SGP4

EPOCH          = 2025-12-25T11:05:43.984896
MEAN_MOTION    = 14.35425810
ECCENTRICITY   = .0001223
INCLINATION    = 98.8463
RA_OF_ASC_NODE = 156.8575
ARG_OF_PERICENTER = 285.0583
MEAN_ANOMALY   = 75.0466

EPHEMERIS_TYPE = 0
CLASSIFICATION_TYPE = U
NORAD_CAT_ID   = 24883
ELEMENT_SET_NO = 999
REV_AT_EPOCH   = 49782
BSTAR          = .12133E-3
MEAN_MOTION_DOT = .302E-5
MEAN_MOTION_DDOT = 0

